[{"OBJECT_NAME":"K-HERO","OBJECT_ID":"2025-274L","EPOCH":"2026-03-09T07:34:25.128768","MEAN_MOTION":14.93525062,"ECCENTRICITY":0.00141369,"INCLINATION":97.7443,"RA_OF_ASC_NODE":359.1816,"ARG_OF_PERICENTER":357.698,"MEAN_ANOMALY":2.4172,"EPHEMERIS_TYPE":0,"CLASSIFICATION_TYPE":"U","NORAD_CAT_ID":66660,"ELEMENT_SET_NO":999,"REV_AT_EPOCH":1532,"BSTAR":0.00026499368,"MEAN_MOTION_DOT":2.739e-5,"MEAN_MOTION_DDOT":0},{"OBJECT_NAME":"SCOUT X-4 R\/B","OBJECT_ID":"1965-101B","EPOCH":"2026-03-09T17:10:13.574496","MEAN_MOTION":14.9141233,"ECCENTRICITY":0.0006189,"INCLINATION":75.8427,"RA_OF_ASC_NODE":166.1466,"ARG_OF_PERICENTER":28.3515,"MEAN_ANOMALY":331.8013,"EPHEMERIS_TYPE":0,"CLASSIFICATION_TYPE":"U","NORAD_CAT_ID":1815,"ELEMENT_SET_NO":999,"REV_AT_EPOCH":5339,"BSTAR":0.00037236868,"MEAN_MOTION_DOT":3.702e-5,"MEAN_MOTION_DDOT":0}]
